{"fetched_at":"2026-07-10T18:08:17.543Z","source":"https://celestrak.org/NORAD/elements/gp.php?NAME=JILIN&FORMAT=JSON","constellation":"jilin-1-early","records":[{"OBJECT_NAME":"JILIN-1","OBJECT_ID":"2015-057D","EPOCH":"2026-07-10T07:11:09.152736","CLASSIFICATION_TYPE":"U","MEAN_MOTION":14.7819682,"ECCENTRICITY":0.00167715,"INCLINATION":97.6516,"RA_OF_ASC_NODE":189.5196,"ARG_OF_PERICENTER":182.7179,"MEAN_ANOMALY":177.3944,"EPHEMERIS_TYPE":0,"NORAD_CAT_ID":40961,"ELEMENT_SET_NO":999,"REV_AT_EPOCH":57902,"BSTAR":0.000074345614,"MEAN_MOTION_DOT":0.00000491,"MEAN_MOTION_DDOT":0},{"OBJECT_NAME":"JILIN-1 03","OBJECT_ID":"2017-002B","EPOCH":"2026-07-10T06:14:12.960672","CLASSIFICATION_TYPE":"U","MEAN_MOTION":15.42147239,"ECCENTRICITY":0.00080306,"INCLINATION":97.195,"RA_OF_ASC_NODE":198.027,"ARG_OF_PERICENTER":92.4404,"MEAN_ANOMALY":267.7763,"EPHEMERIS_TYPE":0,"NORAD_CAT_ID":41914,"ELEMENT_SET_NO":999,"REV_AT_EPOCH":52541,"BSTAR":0.00022538918,"MEAN_MOTION_DOT":0.00009581,"MEAN_MOTION_DDOT":0},{"OBJECT_NAME":"JILIN-1 04","OBJECT_ID":"2017-074A","EPOCH":"2026-07-10T07:21:48.238848","CLASSIFICATION_TYPE":"U","MEAN_MOTION":15.43046533,"ECCENTRICITY":0.0005199,"INCLINATION":97.4867,"RA_OF_ASC_NODE":301.5468,"ARG_OF_PERICENTER":112.8423,"MEAN_ANOMALY":247.3374,"EPHEMERIS_TYPE":0,"NORAD_CAT_ID":43022,"ELEMENT_SET_NO":999,"REV_AT_EPOCH":47783,"BSTAR":0.00022471805,"MEAN_MOTION_DOT":0.00009834,"MEAN_MOTION_DDOT":0},{"OBJECT_NAME":"JILIN-1 05","OBJECT_ID":"2017-074B","EPOCH":"2026-07-10T06:39:32.270976","CLASSIFICATION_TYPE":"U","MEAN_MOTION":15.34237619,"ECCENTRICITY":0.00061988,"INCLINATION":97.4873,"RA_OF_ASC_NODE":297.7507,"ARG_OF_PERICENTER":138.3101,"MEAN_ANOMALY":221.8615,"EPHEMERIS_TYPE":0,"NORAD_CAT_ID":43023,"ELEMENT_SET_NO":999,"REV_AT_EPOCH":47754,"BSTAR":0.00019152265,"MEAN_MOTION_DOT":0.00006269,"MEAN_MOTION_DDOT":0},{"OBJECT_NAME":"JILIN-1 06","OBJECT_ID":"2017-074C","EPOCH":"2026-07-10T07:37:28.072992","CLASSIFICATION_TYPE":"U","MEAN_MOTION":15.33961201,"ECCENTRICITY":0.00077449,"INCLINATION":97.4799,"RA_OF_ASC_NODE":294.7704,"ARG_OF_PERICENTER":148.7487,"MEAN_ANOMALY":211.4218,"EPHEMERIS_TYPE":0,"NORAD_CAT_ID":43024,"ELEMENT_SET_NO":999,"REV_AT_EPOCH":47738,"BSTAR":0.00012313827,"MEAN_MOTION_DOT":0.00003967,"MEAN_MOTION_DDOT":0},{"OBJECT_NAME":"JILIN-1 07","OBJECT_ID":"2018-008E","EPOCH":"2026-07-10T07:14:12.847776","CLASSIFICATION_TYPE":"U","MEAN_MOTION":15.35111442,"ECCENTRICITY":0.00072831,"INCLINATION":97.177,"RA_OF_ASC_NODE":210.6179,"ARG_OF_PERICENTER":348.3357,"MEAN_ANOMALY":11.7717,"EPHEMERIS_TYPE":0,"NORAD_CAT_ID":43159,"ELEMENT_SET_NO":999,"REV_AT_EPOCH":46854,"BSTAR":0.00018281969,"MEAN_MOTION_DOT":0.00006156,"MEAN_MOTION_DDOT":0},{"OBJECT_NAME":"JILIN-1 08","OBJECT_ID":"2018-008F","EPOCH":"2026-07-10T07:37:48.581760","CLASSIFICATION_TYPE":"U","MEAN_MOTION":15.33974461,"ECCENTRICITY":0.00059342,"INCLINATION":97.1805,"RA_OF_ASC_NODE":209.9245,"ARG_OF_PERICENTER":10.8663,"MEAN_ANOMALY":349.2708,"EPHEMERIS_TYPE":0,"NORAD_CAT_ID":43160,"ELEMENT_SET_NO":999,"REV_AT_EPOCH":46849,"BSTAR":0.00012998117,"MEAN_MOTION_DOT":0.00004197,"MEAN_MOTION_DDOT":0},{"OBJECT_NAME":"JILIN-1 09","OBJECT_ID":"2019-005B","EPOCH":"2026-07-10T06:39:40.609440","CLASSIFICATION_TYPE":"U","MEAN_MOTION":15.20715015,"ECCENTRICITY":0.00027765,"INCLINATION":97.4742,"RA_OF_ASC_NODE":286.0461,"ARG_OF_PERICENTER":47.0936,"MEAN_ANOMALY":313.0532,"EPHEMERIS_TYPE":0,"NORAD_CAT_ID":43943,"ELEMENT_SET_NO":999,"REV_AT_EPOCH":41265,"BSTAR":0.00014107728,"MEAN_MOTION_DOT":0.00003033,"MEAN_MOTION_DDOT":0},{"OBJECT_NAME":"JILIN-1 10","OBJECT_ID":"2019-005E","EPOCH":"2026-07-10T06:37:41.133792","CLASSIFICATION_TYPE":"U","MEAN_MOTION":15.25972808,"ECCENTRICITY":0.00080762,"INCLINATION":97.4791,"RA_OF_ASC_NODE":290.0848,"ARG_OF_PERICENTER":186.5012,"MEAN_ANOMALY":173.6122,"EPHEMERIS_TYPE":0,"NORAD_CAT_ID":43946,"ELEMENT_SET_NO":999,"REV_AT_EPOCH":41283,"BSTAR":0.0001624244,"MEAN_MOTION_DOT":0.00004101,"MEAN_MOTION_DDOT":0}]}
