JILIN-1                 
1 40961U 15057D   26191.29941149  .00000491  00000+0  74346-4 0  9997
2 40961  97.6516 189.5196 0016771 182.7179 177.3944 14.78196820579026
JILIN-1 03              
1 41914U 17002B   26191.25987223  .00009581  00000+0  22539-3 0  9992
2 41914  97.1950 198.0270 0008030  92.4404 267.7763 15.42147239525416
JILIN-1 04              
1 43022U 17074A   26191.30680832  .00009834  00000+0  22472-3 0  9992
2 43022  97.4867 301.5468 0005199 112.8423 247.3374 15.43046533477839
JILIN-1 05              
1 43023U 17074B   26191.27745684  .00006269  00000+0  19152-3 0  9996
2 43023  97.4873 297.7507 0006198 138.3101 221.8615 15.34237619477543
JILIN-1 06              
1 43024U 17074C   26191.31768603  .00003967  00000+0  12314-3 0  9993
2 43024  97.4799 294.7704 0007744 148.7487 211.4218 15.33961201477383
JILIN-1 07              
1 43159U 18008E   26191.30153759  .00006156  00000+0  18282-3 0  9992
2 43159  97.1770 210.6179 0007283 348.3357  11.7717 15.35111442468542
JILIN-1 08              
1 43160U 18008F   26191.31792340  .00004197  00000+0  12998-3 0  9991
2 43160  97.1805 209.9245 0005934  10.8663 349.2708 15.33974461468499
JILIN-1 09              
1 43943U 19005B   26191.27755335  .00003033  00000+0  14108-3 0  9999
2 43943  97.4742 286.0461 0002776  47.0936 313.0532 15.20715015412658
JILIN-1 10              
1 43946U 19005E   26191.27617053  .00004101  00000+0  16242-3 0  9994
2 43946  97.4791 290.0848 0008076 186.5012 173.6122 15.25972808412837
